[
  {
    "OBJECT_NAME": "STARLINK-2646",
    "OBJECT_ID": "21044E",
    "EPOCH": "2025-11-11T05:39:18.775872",
    "MEAN_MOTION": 15.06398703,
    "ECCENTRICITY": 0.0001666,
    "INCLINATION": 53.055,
    "RA_OF_ASC_NODE": 293.3913,
    "ARG_OF_PERICENTER": 91.2128,
    "MEAN_ANOMALY": 268.9052,
    "EPHEMERIS_TYPE": 0,
    "CLASSIFICATION_TYPE": "U",
    "NORAD_CAT_ID": 48642,
    "ELEMENT_SET_NO": 999,
    "REV_AT_EPOCH": 24585,
    "BSTAR": 0.00012349,
    "MEAN_MOTION_DOT": 1.558e-05,
    "MEAN_MOTION_DDOT": 0.0,
    "TLE_LINE1": "1 48642U 21044E   25315.23563398  .00001558  00000+0  12349-3 0  9990",
    "TLE_LINE2": "2 48642  53.0550 293.3913 0001666  91.2128 268.9052 15.06398703245854",
    "COMMENT": "Grouped by shell and plane from TLE"
  },
  {
    "OBJECT_NAME": "STARLINK-2704",
    "OBJECT_ID": "21044F",
    "EPOCH": "2025-11-11T05:11:24.578016",
    "MEAN_MOTION": 15.06401143,
    "ECCENTRICITY": 0.0001599,
    "INCLINATION": 53.0544,
    "RA_OF_ASC_NODE": 293.4581,
    "ARG_OF_PERICENTER": 90.395,
    "MEAN_ANOMALY": 269.7223,
    "EPHEMERIS_TYPE": 0,
    "CLASSIFICATION_TYPE": "U",
    "NORAD_CAT_ID": 48643,
    "ELEMENT_SET_NO": 999,
    "REV_AT_EPOCH": 24585,
    "BSTAR": 0.00027351,
    "MEAN_MOTION_DOT": 3.795e-05,
    "MEAN_MOTION_DDOT": 0.0,
    "TLE_LINE1": "1 48643U 21044F   25315.21625669  .00003795  00000+0  27351-3 0  9993",
    "TLE_LINE2": "2 48643  53.0544 293.4581 0001599  90.3950 269.7223 15.06401143245850",
    "COMMENT": "Grouped by shell and plane from TLE"
  },
  {
    "OBJECT_NAME": "STARLINK-2695",
    "OBJECT_ID": "21044G",
    "EPOCH": "2025-11-11T05:07:28.839072",
    "MEAN_MOTION": 15.06393928,
    "ECCENTRICITY": 0.0001367,
    "INCLINATION": 53.0549,
    "RA_OF_ASC_NODE": 293.478,
    "ARG_OF_PERICENTER": 88.2842,
    "MEAN_ANOMALY": 271.8303,
    "EPHEMERIS_TYPE": 0,
    "CLASSIFICATION_TYPE": "U",
    "NORAD_CAT_ID": 48644,
    "ELEMENT_SET_NO": 999,
    "REV_AT_EPOCH": 24585,
    "BSTAR": 8.7508e-05,
    "MEAN_MOTION_DOT": 1.022e-05,
    "MEAN_MOTION_DDOT": 0.0,
    "TLE_LINE1": "1 48644U 21044G   25315.21352823  .00001022  00000+0  87508-4 0  9995",
    "TLE_LINE2": "2 48644  53.0549 293.4780 0001367  88.2842 271.8303 15.06393928245850",
    "COMMENT": "Grouped by shell and plane from TLE"
  },
  {
    "OBJECT_NAME": "STARLINK-2732",
    "OBJECT_ID": "21044J",
    "EPOCH": "2025-11-11T06:32:23.504928",
    "MEAN_MOTION": 15.06396605,
    "ECCENTRICITY": 0.0001405,
    "INCLINATION": 53.0537,
    "RA_OF_ASC_NODE": 293.2121,
    "ARG_OF_PERICENTER": 96.5282,
    "MEAN_ANOMALY": 263.5867,
    "EPHEMERIS_TYPE": 0,
    "CLASSIFICATION_TYPE": "U",
    "NORAD_CAT_ID": 48646,
    "ELEMENT_SET_NO": 999,
    "REV_AT_EPOCH": 24586,
    "BSTAR": 0.00043861000000000003,
    "MEAN_MOTION_DOT": 6.257e-05,
    "MEAN_MOTION_DDOT": 0.0,
    "TLE_LINE1": "1 48646U 21044J   25315.27249427  .00006257  00000+0  43861-3 0  9996",
    "TLE_LINE2": "2 48646  53.0537 293.2121 0001405  96.5282 263.5867 15.06396605245868",
    "COMMENT": "Grouped by shell and plane from TLE"
  },
  {
    "OBJECT_NAME": "STARLINK-2521",
    "OBJECT_ID": "21044L",
    "EPOCH": "2025-11-11T05:12:48.669408",
    "MEAN_MOTION": 15.06400713,
    "ECCENTRICITY": 0.000136,
    "INCLINATION": 53.0551,
    "RA_OF_ASC_NODE": 293.6258,
    "ARG_OF_PERICENTER": 93.4855,
    "MEAN_ANOMALY": 266.629,
    "EPHEMERIS_TYPE": 0,
    "CLASSIFICATION_TYPE": "U",
    "NORAD_CAT_ID": 48648,
    "ELEMENT_SET_NO": 999,
    "REV_AT_EPOCH": 24585,
    "BSTAR": 0.00016159,
    "MEAN_MOTION_DOT": 2.126e-05,
    "MEAN_MOTION_DDOT": 0.0,
    "TLE_LINE1": "1 48648U 21044L   25315.21722997  .00002126  00000+0  16159-3 0  9991",
    "TLE_LINE2": "2 48648  53.0551 293.6258 0001360  93.4855 266.6290 15.06400713245852",
    "COMMENT": "Grouped by shell and plane from TLE"
  },
  {
    "OBJECT_NAME": "STARLINK-2673",
    "OBJECT_ID": "21044M",
    "EPOCH": "2025-11-11T06:21:46.654848",
    "MEAN_MOTION": 15.0639261,
    "ECCENTRICITY": 0.000151,
    "INCLINATION": 53.0553,
    "RA_OF_ASC_NODE": 293.2468,
    "ARG_OF_PERICENTER": 99.6027,
    "MEAN_ANOMALY": 260.5133,
    "EPHEMERIS_TYPE": 0,
    "CLASSIFICATION_TYPE": "U",
    "NORAD_CAT_ID": 48649,
    "ELEMENT_SET_NO": 999,
    "REV_AT_EPOCH": 24585,
    "BSTAR": 0.00012178,
    "MEAN_MOTION_DOT": 1.533e-05,
    "MEAN_MOTION_DDOT": 0.0,
    "TLE_LINE1": "1 48649U 21044M   25315.26512332  .00001533  00000+0  12178-3 0  9995",
    "TLE_LINE2": "2 48649  53.0553 293.2468 0001510  99.6027 260.5133 15.06392610245855",
    "COMMENT": "Grouped by shell and plane from TLE"
  },
  {
    "OBJECT_NAME": "STARLINK-2672",
    "OBJECT_ID": "21044N",
    "EPOCH": "2025-11-11T06:16:29.241120",
    "MEAN_MOTION": 15.0637613,
    "ECCENTRICITY": 0.0001525,
    "INCLINATION": 53.0548,
    "RA_OF_ASC_NODE": 293.2606,
    "ARG_OF_PERICENTER": 63.7642,
    "MEAN_ANOMALY": 296.3504,
    "EPHEMERIS_TYPE": 0,
    "CLASSIFICATION_TYPE": "U",
    "NORAD_CAT_ID": 48650,
    "ELEMENT_SET_NO": 999,
    "REV_AT_EPOCH": 24585,
    "BSTAR": 0.0,
    "MEAN_MOTION_DOT": -3.7e-05,
    "MEAN_MOTION_DDOT": 0.0,
    "TLE_LINE1": "1 48650U 21044N   25315.26144955 -.00003700  00000+0 -22975-3 0  9995",
    "TLE_LINE2": "2 48650  53.0548 293.2606 0001525  63.7642 296.3504 15.06376130245854",
    "COMMENT": "Grouped by shell and plane from TLE"
  },
  {
    "OBJECT_NAME": "STARLINK-2731",
    "OBJECT_ID": "21044P",
    "EPOCH": "2025-11-11T06:11:09.974112",
    "MEAN_MOTION": 15.06388322,
    "ECCENTRICITY": 0.0001551,
    "INCLINATION": 53.0562,
    "RA_OF_ASC_NODE": 293.2786,
    "ARG_OF_PERICENTER": 88.8382,
    "MEAN_ANOMALY": 271.2785,
    "EPHEMERIS_TYPE": 0,
    "CLASSIFICATION_TYPE": "U",
    "NORAD_CAT_ID": 48651,
    "ELEMENT_SET_NO": 999,
    "REV_AT_EPOCH": 24585,
    "BSTAR": 7.631200000000001e-05,
    "MEAN_MOTION_DOT": 8.55e-06,
    "MEAN_MOTION_DDOT": 0.0,
    "TLE_LINE1": "1 48651U 21044P   25315.25775433  .00000855  00000+0  76312-4 0  9997",
    "TLE_LINE2": "2 48651  53.0562 293.2786 0001551  88.8382 271.2785 15.06388322245857",
    "COMMENT": "Grouped by shell and plane from TLE"
  },
  {
    "OBJECT_NAME": "STARLINK-2727",
    "OBJECT_ID": "21044Q",
    "EPOCH": "2025-11-11T06:05:51.833760",
    "MEAN_MOTION": 15.06392746,
    "ECCENTRICITY": 0.0001994,
    "INCLINATION": 53.0563,
    "RA_OF_ASC_NODE": 293.2979,
    "ARG_OF_PERICENTER": 96.3859,
    "MEAN_ANOMALY": 263.7358,
    "EPHEMERIS_TYPE": 0,
    "CLASSIFICATION_TYPE": "U",
    "NORAD_CAT_ID": 48652,
    "ELEMENT_SET_NO": 999,
    "REV_AT_EPOCH": 24585,
    "BSTAR": 6.0743000000000004e-05,
    "MEAN_MOTION_DOT": 6.23e-06,
    "MEAN_MOTION_DDOT": 0.0,
    "TLE_LINE1": "1 48652U 21044Q   25315.25407215  .00000623  00000+0  60743-4 0  9992",
    "TLE_LINE2": "2 48652  53.0563 293.2979 0001994  96.3859 263.7358 15.06392746245854",
    "COMMENT": "Grouped by shell and plane from TLE"
  },
  {
    "OBJECT_NAME": "STARLINK-2720",
    "OBJECT_ID": "21044R",
    "EPOCH": "2025-11-11T06:00:32.836320",
    "MEAN_MOTION": 15.06394455,
    "ECCENTRICITY": 0.0001503,
    "INCLINATION": 53.0554,
    "RA_OF_ASC_NODE": 293.3147,
    "ARG_OF_PERICENTER": 92.7453,
    "MEAN_ANOMALY": 267.3708,
    "EPHEMERIS_TYPE": 0,
    "CLASSIFICATION_TYPE": "U",
    "NORAD_CAT_ID": 48653,
    "ELEMENT_SET_NO": 999,
    "REV_AT_EPOCH": 24585,
    "BSTAR": 0.00014379,
    "MEAN_MOTION_DOT": 1.861e-05,
    "MEAN_MOTION_DDOT": 0.0,
    "TLE_LINE1": "1 48653U 21044R   25315.25038005  .00001861  00000+0  14379-3 0  9998",
    "TLE_LINE2": "2 48653  53.0554 293.3147 0001503  92.7453 267.3708 15.06394455245857",
    "COMMENT": "Grouped by shell and plane from TLE"
  },
  {
    "OBJECT_NAME": "STARLINK-2657",
    "OBJECT_ID": "21044T",
    "EPOCH": "2025-11-11T05:49:55.691616",
    "MEAN_MOTION": 15.06409568,
    "ECCENTRICITY": 0.0001222,
    "INCLINATION": 53.0546,
    "RA_OF_ASC_NODE": 293.3448,
    "ARG_OF_PERICENTER": 97.0805,
    "MEAN_ANOMALY": 263.0323,
    "EPHEMERIS_TYPE": 0,
    "CLASSIFICATION_TYPE": "U",
    "NORAD_CAT_ID": 48655,
    "ELEMENT_SET_NO": 999,
    "REV_AT_EPOCH": 24585,
    "BSTAR": 9.019500000000001e-05,
    "MEAN_MOTION_DOT": 1.063e-05,
    "MEAN_MOTION_DDOT": 0.0,
    "TLE_LINE1": "1 48655U 21044T   25315.24300569  .00001063  00000+0  90195-4 0  9991",
    "TLE_LINE2": "2 48655  53.0546 293.3448 0001222  97.0805 263.0323 15.06409568245859",
    "COMMENT": "Grouped by shell and plane from TLE"
  },
  {
    "OBJECT_NAME": "STARLINK-2701",
    "OBJECT_ID": "21044U",
    "EPOCH": "2025-11-11T04:09:06.263424",
    "MEAN_MOTION": 15.06405364,
    "ECCENTRICITY": 0.0001352,
    "INCLINATION": 53.0552,
    "RA_OF_ASC_NODE": 293.6591,
    "ARG_OF_PERICENTER": 104.9729,
    "MEAN_ANOMALY": 255.141,
    "EPHEMERIS_TYPE": 0,
    "CLASSIFICATION_TYPE": "U",
    "NORAD_CAT_ID": 48656,
    "ELEMENT_SET_NO": 999,
    "REV_AT_EPOCH": 24584,
    "BSTAR": 0.00080543,
    "MEAN_MOTION_DOT": 0.00011737,
    "MEAN_MOTION_DDOT": 0.0,
    "TLE_LINE1": "1 48656U 21044U   25315.17298916  .00011737  00000+0  80543-3 0  9990",
    "TLE_LINE2": "2 48656  53.0552 293.6591 0001352 104.9729 255.1410 15.06405364245844",
    "COMMENT": "Grouped by shell and plane from TLE"
  },
  {
    "OBJECT_NAME": "STARLINK-2734",
    "OBJECT_ID": "21044V",
    "EPOCH": "2025-11-11T06:25:41.117664",
    "MEAN_MOTION": 15.06404761,
    "ECCENTRICITY": 0.0001471,
    "INCLINATION": 53.0548,
    "RA_OF_ASC_NODE": 292.8764,
    "ARG_OF_PERICENTER": 83.2259,
    "MEAN_ANOMALY": 276.8897,
    "EPHEMERIS_TYPE": 0,
    "CLASSIFICATION_TYPE": "U",
    "NORAD_CAT_ID": 48657,
    "ELEMENT_SET_NO": 999,
    "REV_AT_EPOCH": 24586,
    "BSTAR": 0.00026095000000000003,
    "MEAN_MOTION_DOT": 3.608e-05,
    "MEAN_MOTION_DDOT": 0.0,
    "TLE_LINE1": "1 48657U 21044V   25315.26783701  .00003608  00000+0  26095-3 0  9992",
    "TLE_LINE2": "2 48657  53.0548 292.8764 0001471  83.2259 276.8897 15.06404761245863",
    "COMMENT": "Grouped by shell and plane from TLE"
  }
]